{
    "links": {
        "self": "http://www.neowsapp.com/rest/v1/neo/3127408?api_key=iIulBulltgU6a56xZRHN4H3l9WmuAYTsLGpBGhQ2"
    },
    "id": "3127408",
    "neo_reference_id": "3127408",
    "name": "(2002 LZ45)",
    "designation": "2002 LZ45",
    "nasa_jpl_url": "http://ssd.jpl.nasa.gov/sbdb.cgi?sstr=3127408",
    "absolute_magnitude_h": 23.0,
    "estimated_diameter": {
        "kilometers": {
            "estimated_diameter_min": 0.0667659413,
            "estimated_diameter_max": 0.1492931834
        },
        "meters": {
            "estimated_diameter_min": 66.7659413495,
            "estimated_diameter_max": 149.2931834393
        },
        "miles": {
            "estimated_diameter_min": 0.0414864197,
            "estimated_diameter_max": 0.0927664547
        },
        "feet": {
            "estimated_diameter_min": 219.0483710172,
            "estimated_diameter_max": 489.807047955
        }
    },
    "is_potentially_hazardous_asteroid": false,
    "close_approach_data": [
        {
            "close_approach_date": "2002-06-24",
            "close_approach_date_full": "2002-Jun-24 17:39",
            "epoch_date_close_approach": 1024940340000,
            "relative_velocity": {
                "kilometers_per_second": "15.268962894",
                "kilometers_per_hour": "54968.2664184796",
                "miles_per_hour": "34155.143097638"
            },
            "miss_distance": {
                "astronomical": "0.012785995",
                "lunar": "4.973752055",
                "kilometers": "1912757.61783065",
                "miles": "1188532.47073697"
            },
            "orbiting_body": "Earth"
        }
    ],
    "orbital_data": {
        "orbit_id": "15",
        "orbit_determination_date": "2017-04-06 09:15:05",
        "first_observation_date": "2002-06-14",
        "last_observation_date": "2002-06-24",
        "data_arc_in_days": 10,
        "observations_used": 125,
        "orbit_uncertainty": "7",
        "minimum_orbit_intersection": ".0062119",
        "jupiter_tisserand_invariant": "3.275",
        "epoch_osculation": "2459000.5",
        "eccentricity": ".6374176494510293",
        "semi_major_axis": "2.307896027856181",
        "inclination": "6.165570729944423",
        "ascending_node_longitude": "90.92093638064839",
        "orbital_period": "1280.627390430175",
        "perihelion_distance": ".8368023666027269",
        "perihelion_argument": "240.2449536902426",
        "aphelion_distance": "3.778989689109635",
        "perihelion_time": "2458909.892652329663",
        "mean_anomaly": "25.47083203519831",
        "mean_motion": ".2811122131934665",
        "equinox": "J2000",
        "orbit_class": {
            "orbit_class_type": "APO",
            "orbit_class_description": "Near-Earth asteroid orbits which cross the Earth’s orbit similar to that of 1862 Apollo",
            "orbit_class_range": "a (semi-major axis) > 1.0 AU; q (perihelion) < 1.017 AU"
        }
    },
    "is_sentry_object": false
}